NORAD_CAT_ID,OBJECT_NAME,OBJECT_TYPE,EPOCH,MEAN_MOTION,ECCENTRICITY,INCLINATION,RA_OF_ASC_NODE,ARG_OF_PERICENTER,MEAN_ANOMALY,BSTAR,MEAN_MOTION_DOT,MEAN_MOTION_DDOT,TLE_LINE0,TLE_LINE1,TLE_LINE2,SEMIMAJOR_AXIS,PERIOD,APOGEE,PERIGEE,DECAYED
54157.0,STARLINK-5290,PAYLOAD,2023-09-21 22:22:14,15.08842198,0.0001369,53.2173,93.3418,90.4936,269.6212,5.8472e-06,-1.95e-06,0.0,0 STARLINK-5290,1 54157U 22141A   23264.93210921 -.00000195  00000-0  58472-5 0  9993,2 54157  53.2173  93.3418 0001369  90.4936 269.6212 15.08842198 49886,6917.874,95.437,540.686,538.792,0.0
54157.0,STARLINK-5290,PAYLOAD,2023-09-22 19:02:15,15.08853901,0.000147,53.2168,89.4759,92.2531,267.8629,0.00065206,0.00010109,0.0,0 STARLINK-5290,1 54157U 22141A   23265.79323100  .00010109  00000-0  65206-3 0  9998,2 54157  53.2168  89.4759 0001470  92.2531 267.8629 15.08853901 50011,6917.838,95.437,540.72,538.686,0.0
54157.0,STARLINK-5290,PAYLOAD,2023-09-23 12:31:29,15.08860041,0.0001931,53.2189,86.2057,89.8522,270.2692,0.00029213,4.367e-05,0.0,0 STARLINK-5290,1 54157U 22141A   23266.52186493  .00004367  00000-0  29213-3 0  9999,2 54157  53.2189  86.2057 0001931  89.8522 270.2692 15.08860041 50127,6917.819,95.436,541.02,538.348,0.0
54157.0,STARLINK-5290,PAYLOAD,2023-09-24 10:46:52,15.0885058,0.00014,53.2168,82.0421,78.7216,281.3933,0.0005996,9.27e-05,0.0,0 STARLINK-5290,1 54157U 22141A   23267.44922045  .00009270  00000-0  59960-3 0  9992,2 54157  53.2168  82.0421 0001400  78.7216 281.3933 15.08850580 50264,6917.848,95.437,540.682,538.745,0.0
54157.0,STARLINK-5290,PAYLOAD,2023-09-24 12:22:15,15.08848462,9.04e-05,53.2169,81.7446,79.2976,280.8118,0.0005875,9.077e-05,0.0,0 STARLINK-5290,1 54157U 22141A   23267.51546010  .00009077  00000-0  58750-3 0  9995,2 54157  53.2169  81.7446 0000904  79.2976 280.8118 15.08848462 50271,6917.855,95.437,540.345,539.094,0.0
54157.0,STARLINK-5290,PAYLOAD,2023-09-24 20:19:11,15.08852452,0.0001205,53.2169,80.2579,89.6352,270.4778,0.00039999,6.086e-05,0.0,0 STARLINK-5290,1 54157U 22141A   23267.84665767  .00006086  00000-0  39999-3 0  9993,2 54157  53.2169  80.2579 0001205  89.6352 270.4778 15.08852452 50327,6917.842,95.437,540.541,538.874,0.0
54157.0,STARLINK-5290,PAYLOAD,2023-09-25 10:37:39,15.08847679,0.0001052,53.216,77.581,93.2885,266.8227,0.00029253,4.372e-05,0.0,0 STARLINK-5290,1 54157U 22141A   23268.44281936  .00004372  00000-0  29253-3 0  9990,2 54157  53.2160  77.5810 0001052  93.2885 266.8227 15.08847679 50410,6917.857,95.437,540.45,538.994,0.0
54157.0,STARLINK-5290,PAYLOAD,2023-09-25 18:34:35,15.08849732,0.0001151,53.2166,76.0946,81.4627,278.6495,0.00026257,3.895e-05,0.0,0 STARLINK-5290,1 54157U 22141A   23268.77401833  .00003895  00000-0  26257-3 0  9996,2 54157  53.2166  76.0946 0001151  81.4627 278.6495 15.08849732 50468,6917.851,95.437,540.512,538.919,0.0
54157.0,STARLINK-5290,PAYLOAD,2023-09-26 13:39:13,15.08826533,0.00011,53.2167,72.5269,105.314,254.7974,-0.00012903,-2.34e-05,0.0,0 STARLINK-5290,1 54157U 22141A   23269.56890654 -.00002340  00000-0 -12903-3 0  9996,2 54157  53.2167  72.5269 0001100 105.3140 254.7974 15.08826533 50582,6917.922,95.438,540.548,539.026,0.0
54157.0,STARLINK-5290,PAYLOAD,2023-09-26 16:50:00,15.08826952,0.0001622,53.2165,71.9309,78.2704,281.847,-0.00011082,-2.051e-05,0.0,0 STARLINK-5290,1 54157U 22141A   23269.70139134 -.00002051  00000-0 -11082-3 0  9997,2 54157  53.2165  71.9309 0001622  78.2704 281.8470 15.08826952 50601,6917.92,95.438,540.907,538.663,0.0
54157.0,STARLINK-5290,PAYLOAD,2023-09-26 20:00:46,15.08838435,0.0001406,53.2169,71.3371,86.5968,273.5185,7.9079e-05,9.71e-06,0.0,0 STARLINK-5290,1 54157U 22141A   23269.83386743  .00000971  00000-0  79079-4 0  9999,2 54157  53.2169  71.3371 0001406  86.5968 273.5185 15.08838435 50624,6917.885,95.438,540.723,538.778,0.0
54157.0,STARLINK-5290,PAYLOAD,2023-09-27 18:16:10,15.08833601,0.0001361,53.2169,67.1734,80.5099,279.6047,0.00010443,1.374e-05,0.0,0 STARLINK-5290,1 54157U 22141A   23270.76123447  .00001374  00000-0  10443-3 0  9990,2 54157  53.2169  67.1734 0001361  80.5099 279.6047 15.08833601 50768,6917.9,95.438,540.706,538.823,0.0
54157.0,STARLINK-5290,PAYLOAD,2023-09-28 14:56:11,15.08841543,0.0001362,53.2176,63.3052,83.1239,276.9908,0.00021046,3.063e-05,0.0,0 STARLINK-5290,1 54157U 22141A   23271.62235464  .00003063  00000-0  21046-3 0  9997,2 54157  53.2176  63.3052 0001362  83.1239 276.9908 15.08841543 50897,6917.876,95.437,540.683,538.798,0.0
54157.0,STARLINK-5290,PAYLOAD,2023-09-28 16:31:34,15.08846749,0.0001431,53.2171,63.0092,84.4571,275.6585,0.00034155,5.153e-05,0.0,0 STARLINK-5290,1 54157U 22141A   23271.68859309  .00005153  00000-0  34155-3 0  9990,2 54157  53.2171  63.0092 0001431  84.4571 275.6585 15.08846749 50905,6917.86,95.437,540.715,538.735,0.0
54157.0,STARLINK-5290,PAYLOAD,2023-09-28 19:42:20,15.08852052,0.0001457,53.2175,62.4127,89.6481,270.4678,0.00051512,7.922e-05,0.0,0 STARLINK-5290,1 54157U 22141A   23271.82107130  .00007922  00000-0  51512-3 0  9996,2 54157  53.2175  62.4127 0001457  89.6481 270.4678 15.08852052 50928,6917.844,95.437,540.716,538.701,0.0
54157.0,STARLINK-5290,PAYLOAD,2023-09-29 13:11:34,15.08853565,0.00019,53.2178,59.1431,111.4947,248.6248,0.00043623,6.664e-05,0.0,0 STARLINK-5290,1 54157U 22141A   23272.54970941  .00006664  00000-0  43623-3 0  9990,2 54157  53.2178  59.1431 0001900 111.4947 248.6248 15.08853565 51039,6917.839,95.437,541.018,538.39,0.0
54157.0,STARLINK-5290,PAYLOAD,2023-09-29 21:08:30,15.08869009,0.0001378,53.2179,57.6567,86.1598,273.9551,0.00073195,0.00011389,0.0,0 STARLINK-5290,1 54157U 22141A   23272.88090322  .00011389  00000-0  73195-3 0  9990,2 54157  53.2179  57.6567 0001378  86.1598 273.9551 15.08869009 51085,6917.792,95.436,540.61,538.703,0.0
54157.0,STARLINK-5290,PAYLOAD,2023-09-30 09:51:35,15.08839438,0.0001794,53.2191,55.2721,119.1044,241.0128,-0.0001093,-2.027e-05,0.0,0 STARLINK-5290,1 54157U 22141A   23273.41082641 -.00002027  00000-0 -10930-3 0  9994,2 54157  53.2191  55.2721 0001794 119.1044 241.0128 15.08839438 51168,6917.882,95.438,540.988,538.506,0.0
54157.0,STARLINK-5290,PAYLOAD,2023-09-30 16:13:07,15.08848287,0.000145,53.2181,54.0889,99.0453,261.0704,0.00022271,3.259e-05,0.0,0 STARLINK-5290,1 54157U 22141A   23273.67578629  .00003259  00000-0  22271-3 0  9995,2 54157  53.2181  54.0889 0001450  99.0453 261.0704 15.08848287 51207,6917.855,95.437,540.723,538.717,0.0
54157.0,STARLINK-5290,PAYLOAD,2023-10-01 12:53:08,15.08850836,0.0001406,53.2182,50.2238,96.1296,263.9857,0.00053775,8.283e-05,0.0,0 STARLINK-5290,1 54157U 22141A   23274.53690561  .00008283  00000-0  53775-3 0  9996,2 54157  53.2182  50.2238 0001406  96.1296 263.9857 15.08850836 51335,6917.847,95.437,540.685,538.74,0.0
54157.0,STARLINK-5290,PAYLOAD,2023-10-01 16:03:54,15.08857082,0.0001292,53.2187,49.6291,80.0741,280.0397,0.00064358,9.974e-05,0.0,0 STARLINK-5290,1 54157U 22141A   23274.66938390  .00009974  00000-0  64358-3 0  9992,2 54157  53.2187  49.6291 0001292  80.0741 280.0397 15.08857082 51352,6917.828,95.436,540.587,538.799,0.0
54157.0,STARLINK-5290,PAYLOAD,2023-10-02 19:05:28,15.08846576,0.0001334,53.2188,44.5742,88.5636,271.5509,0.00047753,7.321e-05,0.0,0 STARLINK-5290,1 54157U 22141A   23275.79546832  .00007321  00000-0  47753-3 0  9997,2 54157  53.2188  44.5742 0001334  88.5636 271.5509 15.08846576 51526,6917.86,95.437,540.648,538.802,0.0
54157.0,STARLINK-5290,PAYLOAD,2023-10-03 01:27:01,15.08829625,0.0001101,53.2184,43.3846,83.5752,276.5365,-0.00013524,-2.439e-05,0.0,0 STARLINK-5290,1 54157U 22141A   23276.06043016 -.00002439  00000-0 -13524-3 0  9990,2 54157  53.2184  43.3846 0001101  83.5752 276.5365 15.08829625 51565,6917.912,95.438,540.539,539.015,0.0
54157.0,STARLINK-5290,PAYLOAD,2023-10-03 14:10:06,15.08836439,0.0001514,53.2189,41.0063,81.7518,278.3646,0.00037037,5.611e-05,0.0,0 STARLINK-5290,1 54157U 22141A   23276.59035213  .00005611  00000-0  37037-3 0  9996,2 54157  53.2189  41.0063 0001514  81.7518 278.3646 15.08836439 51646,6917.891,95.438,540.804,538.709,0.0
54157.0,STARLINK-5290,PAYLOAD,2023-10-03 15:45:29,15.088409,0.0001582,53.2191,40.7097,79.6589,280.4582,0.0005591,8.621e-05,0.0,0 STARLINK-5290,1 54157U 22141A   23276.65659227  .00008621  00000-0  55910-3 0  9994,2 54157  53.2191  40.7097 0001582  79.6589 280.4582 15.08840900 51653,6917.878,95.437,540.837,538.648,0.0
54157.0,STARLINK-5290,PAYLOAD,2023-10-03 18:56:15,15.08849271,0.0001647,53.219,40.115,78.4805,281.6372,0.0013069,0.00020578,0.0,0 STARLINK-5290,1 54157U 22141A   23276.78907288  .00020578  00000-0  13069-2 0  9994,2 54157  53.2190  40.1150 0001647  78.4805 281.6372 15.08849271 51678,6917.852,95.437,540.856,538.578,0.0
54157.0,STARLINK-5290,PAYLOAD,2023-10-04 14:00:53,15.08867086,0.0001378,53.2181,36.5463,84.1028,276.0121,0.0011976,0.00018837,0.0,0 STARLINK-5290,1 54157U 22141A   23277.58394814  .00018837  00000-0  11976-2 0  9998,2 54157  53.2181  36.5463 0001378  84.1028 276.0121 15.08867086 51793,6917.798,95.436,540.616,538.709,0.0
54157.0,STARLINK-5290,PAYLOAD,2023-10-04 17:11:39,15.08878776,0.0001213,53.2178,35.9518,90.2886,269.8245,0.0023003,0.0003655,0.0,0 STARLINK-5290,1 54157U 22141A   23277.71642540  .00036550  00000-0  23003-2 0  9991,2 54157  53.2178  35.9518 0001213  90.2886 269.8245 15.08878776 51819,6917.762,95.435,540.466,538.788,0.0
54157.0,STARLINK-5290,PAYLOAD,2023-10-04 20:22:25,15.08890537,0.0001177,53.2175,35.3568,87.8736,272.2391,0.0023486,0.0003734,0.0,0 STARLINK-5290,1 54157U 22141A   23277.84890089  .00037340  00000-0  23486-2 0  9991,2 54157  53.2175  35.3568 0001177  87.8736 272.2391 15.08890537 51831,6917.726,95.434,540.405,538.777,0.0
54157.0,STARLINK-5290,PAYLOAD,2023-10-05 01:08:34,15.08835291,8.01e-05,53.2178,34.4651,113.539,246.5686,-0.00071286,-0.00011613,0.0,0 STARLINK-5290,1 54157U 22141A   23278.04762475 -.00011613  00000-0 -71286-3 0  9990,2 54157  53.2178  34.4651 0000801 113.5390 246.5686 15.08835291 51863,6917.895,95.438,540.314,539.206,0.0
